STARLINK-11463 [DTC]    
1 62066U 24217K   25008.69199647 -.00002847  00000+0 -13400-4 0  9996
2 62066  53.1547   7.0238 0001876  96.8170 263.3064 15.76716391  8413
STARLINK-11472 [DTC]    
1 62067U 24217L   25008.68712041  .00002841  00000+0  21369-4 0  9990
2 62067  53.1551   6.9945 0002578  96.3588 263.7727 15.76721567  8343
STARLINK-11467 [DTC]    
1 62068U 24217M   25008.30192332 -.00001198  00000+0 -33086-5 0  9991
2 62068  53.1547   8.8564 0002299  41.8179 318.3017 15.76713507  8353
STARLINK-11460 [DTC]    
1 62069U 24217N   25008.29214441  .00002461  00000+0  19025-4 0  9994
2 62069  53.1540   8.7950 0001321  67.2325 292.8835 15.76735643  8297
STARLINK-32604          
1 62070U 24217P   25008.30490397  .00000324  00000+0  18092-4 0  9993
2 62070  53.1623  15.4126 0001571  89.3627 270.7558 15.39616458  8218
STARLINK-32553          
1 62071U 24217Q   25008.71295519 -.00000955  00000+0 -13869-4 0  9997
2 62071  53.1640  13.6915 0001741  95.1075 265.0128 15.39632209  8329
STARLINK-32603          
1 62072U 24217R   25008.74006852 -.00001210  00000+0 -20271-4 0  9991
2 62072  53.1630  13.1464 0001890  84.3623 275.7598 15.39611055  8333
STARLINK-32444          
1 62073U 24217S   25008.72689417 -.00002718  00000+0 -57983-4 0  9998
2 62073  53.1635  13.7922 0001319 100.7509 259.3644 15.39623627  8277
STARLINK-32619          
1 62074U 24217T   25008.42477532 -.00001920  00000+0 -38013-4 0  9996
2 62074  53.1619  14.7302 0001937  80.0838 280.0385 15.39619079  8239
STARLINK-32580          
1 62075U 24217U   25008.70367855 -.00002149  00000+0 -43758-4 0  9990
2 62075  53.1620  13.6312 0001541  88.3754 271.7428 15.39612131  8271
STARLINK-32617          
1 62076U 24217V   25008.70832996 -.00011384  00000+0 -27531-3 0  9995
2 62076  53.1613  13.6593 0001264 109.2722 250.8419 15.39591601  8271
STARLINK-11384 [DTC]    
1 62088U 24220A   25008.92041703 -.00004902  00000+0 -34702-4 0  9991
2 62088  43.0036  83.8384 0001568 265.6643  94.4045 15.70855389  8249
STARLINK-11379 [DTC]    
1 62089U 24220B   25008.91510936 -.00000432  00000+0  12017-6 0  9990
2 62089  42.9999  83.7926 0001190 272.8890  87.1841 15.70811444  8148
STARLINK-11387 [DTC]    
1 62090U 24220C   25008.90979489 -.00004744  00000+0 -33495-4 0  9995
2 62090  43.0017  83.7505 0001526 266.8319  93.2374 15.70842466  8246
STARLINK-11389 [DTC]    
1 62091U 24220D   25008.90448457  .00001828  00000+0  17735-4 0  9999
2 62091  43.0007  83.7082 0000944 306.3084  53.7696 15.70833699  8143
STARLINK-11388 [DTC]    
1 62092U 24220E   25008.89917382 -.00000959  00000+0 -39791-5 0  9999
2 62092  42.9991  83.6657 0002031 268.6480  91.4155 15.70832514  8144
STARLINK-11345 [DTC]    
1 62093U 24220F   25008.89385816 -.00008028  00000+0 -59067-4 0  9993
2 62093  43.0026  83.6201 0002182 276.3577  83.7042 15.70859189  8147
STARLINK-11381 [DTC]    
1 62094U 24220G   25008.50705413  .00004589  00000+0  39253-4 0  9992
2 62094  42.9992  85.8800 0001540 268.7449  91.3242 15.70832654  8085
STARLINK-11369 [DTC]    
1 62095U 24220H   25008.50174138  .00004771  00000+0  40648-4 0  9990
2 62095  42.9981  85.8352 0001695 277.3309  82.7366 15.70842285  8181
STARLINK-11303 [DTC]    
1 62096U 24220J   25008.62360195 -.00000381  00000+0  52725-6 0  9999
2 62096  43.0007  85.0255 0001955 285.8501  74.2151 15.70833998  8206
STARLINK-11367 [DTC]    
1 62097U 24220K   25008.55471504 -.00001083  00000+0 -49514-5 0  9991
2 62097  42.9996  85.3693 0001410 264.7598  95.3109 15.70822461  8197
STARLINK-11386 [DTC]    
1 62098U 24220L   25008.48581715  .00003749  00000+0  32697-4 0  9992
2 62098  42.9973  85.7069 0001713 250.3625 109.7058 15.70841722  8084
STARLINK-11380 [DTC]    
1 62099U 24220M   25008.67125916 -.00000229  00000+0  17100-5 0  9995
2 62099  43.0006  84.5172 0001641 277.5362  82.5320 15.70828384  8118
STARLINK-33566          
1 62100U 24220N   25008.63116679 -.00000945  00000+0 -15371-4 0  9993
2 62100  42.9994  91.2770 0001167 285.1894  74.8834 15.40696906  8127
STARLINK-33545          
1 62101U 24220P   25008.90392837 -.00000174  00000+0  30832-5 0  9999
2 62101  42.9977  89.8861 0001281 254.4044 105.6671 15.40693961  7990
STARLINK-33562          
1 62102U 24220Q   25008.56185639  .00001123  00000+0  34155-4 0  9997
2 62102  43.0002  91.6165 0001801 280.3539  79.7115 15.40699433  7944
STARLINK-33554          
1 62103U 24220R   25008.90840728  .00002414  00000+0  65040-4 0  9994
2 62103  42.9993  89.9186 0000897 278.9276  81.1479 15.40698773  7924
STARLINK-33555          
1 62104U 24220S   25008.59309476  .00001276  00000+0  37825-4 0  9995
2 62104  43.0033  90.9817 0001376 264.9994  95.0705 15.40686160  8092
STARLINK-33542          
1 62105U 24220T   25008.63280610  .00028559  00000+0  14547-3 0  9997
2 62105  43.0011  86.8704 0002548 263.3742  96.6839 15.80827346  8197
STARLINK-33557          
1 62106U 24220U   25008.91667824 -.01460421  00000+0 -29347-1 0  9998
2 62106  43.0001  86.1646 0001392 281.7651 201.7818 15.48664123  5991
STARLINK-33559          
1 62107U 24220V   25008.28012379  .00002161  00000+0  58940-4 0  9992
2 62107  43.0018  92.9343 0002273 265.6520  94.4077 15.40727667  8075
STARLINK-33553          
1 62108U 24220W   25008.49254733  .00000559  00000+0  20658-4 0  9992
2 62108  43.0034  91.9543 0001912 267.0057  93.0581 15.40698928  8101
STARLINK-33556          
1 62109U 24220X   25008.57305130 -.00032755  00000+0 -78115-3 0  9995
2 62109  42.9991  91.7001 0001613 276.2953  83.7720 15.40663821  8132
STARLINK-33551          
1 62110U 24220Y   25008.54841435  .00002557  00000+0  68481-4 0  9998
2 62110  43.0011  91.5127 0002207 288.9499  71.1118 15.40695628  8111
STARLINK-32311          
1 62114U 24222A   25008.89056063  .00002256  00000+0  61246-4 0  9995
2 62114  43.0015  20.2428 0001123 271.8916  88.1812 15.40706814  7885
STARLINK-32470          
1 62115U 24222B   25008.72955172  .00001908  00000+0  52948-4 0  9999
2 62115  43.0016  20.7459 0001166 279.6334  80.4391 15.40685719  7857
STARLINK-32502          
1 62116U 24222C   25008.71386089 -.00000774  00000+0 -11261-4 0  9999
2 62116  43.0064  20.6252 0001302 244.8622 115.2100 15.40703138  7768
STARLINK-32521          
1 62117U 24222D   25008.91667824 -.00012346  00000+0 -28877-3 0  9999
2 62117  42.9998  14.8597 0001721 246.8930 225.5345 15.40697725  6061
STARLINK-32549          
1 62118U 24222E   25008.74522402  .00000493  00000+0  19061-4 0  9997
2 62118  43.0036  20.8669 0001066 259.8770 100.1966 15.40702530  7768
STARLINK-32535          
1 62119U 24222F   25008.75193761 -.00005272  00000+0 -11894-3 0  9998
2 62119  43.0021  20.9193 0001123 250.1154 109.9581 15.40723914  7714
STARLINK-32548          
1 62120U 24222G   25008.51041720  .00000704  00000+0  24100-4 0  9999
2 62120  43.0005  21.6742 0000848 211.1710 148.9096 15.40705094  7683
STARLINK-32525          
1 62121U 24222H   25008.73625590  .00002395  00000+0  64506-4 0  9999
2 62121  42.9980  20.7975 0000262 331.0952  28.9890 15.40726773  7701
STARLINK-32628          
1 62122U 24222J   25008.72059469 -.00000784  00000+0 -11508-4 0  9991
2 62122  43.0002  20.6772 0000590  62.1401 297.9515 15.40693562  7877
STARLINK-32626          
1 62123U 24222K   25008.45006180 -.00003148  00000+0 -68087-4 0  9995
2 62123  43.0030  22.0826 0001204 261.3895  98.6826 15.40719425  7663
STARLINK-32608          
1 62124U 24222L   25008.72506599  .00000398  00000+0  16782-4 0  9992
2 62124  43.0036  20.7074 0001097 287.1865  72.8871 15.40692699  7693
STARLINK-32488          
1 62125U 24222M   25008.50593534  .00000543  00000+0  20245-4 0  9995
2 62125  43.0025  21.6396 0000399 194.1964 165.8882 15.40698434  7575
STARLINK-32490          
1 62126U 24222N   25008.74074232 -.00003368  00000+0 -73372-4 0  9990
2 62126  43.0011  20.8313 0001616 256.3539 103.7138 15.40712715  7702
STARLINK-32557          
1 62127U 24222P   25008.91667824  .00034744  00000+0  83595-3 0  9992
2 62127  42.9996  13.8942 0001250 268.9709 231.1299 15.40673001  7848
STARLINK-32568          
1 62128U 24222Q   25008.71163274  .00000525  00000+0  19827-4 0  9999
2 62128  42.9976  20.6036 0000538 288.9827  71.0971 15.40690673  7446
STARLINK-32462          
1 62129U 24222R   25008.75641672 -.00004844  00000+0 -10875-3 0  9990
2 62129  43.0027  20.9526 0001649 266.3509  93.7159 15.40705243  7702
STARLINK-32463          
1 62130U 24222S   25008.34506085 -.00004292  00000+0 -95556-4 0  9992
2 62130  42.9999  23.0208 0001179 238.4656 121.6086 15.40695235  7644
STARLINK-32550          
1 62131U 24222T   25008.44783032 -.00001499  00000+0 -28618-4 0  9994
2 62131  43.0036  22.0628 0001028 265.0815  94.9924 15.40702888  7714
STARLINK-32507          
1 62132U 24222U   25008.74970060 -.00003379  00000+0 -73621-4 0  9990
2 62132  43.0016  20.8986 0001413 264.3354  95.7341 15.40714569  7557
STARLINK-32245          
1 62133U 24222V   25008.71612306 -.00000542  00000+0 -57335-5 0  9998
2 62133  43.0036  20.6371 0000347 280.6439  79.4378 15.40676014  7861
STARLINK-32546          
1 62134U 24222W   25008.75418847  .00000581  00000+0  21160-4 0  9994
2 62134  43.0014  20.9352 0000920 257.3873 102.6880 15.40694191  7593
STARLINK-32545          
1 62135U 24222X   25008.50369292 -.00000493  00000+0 -45377-5 0  9998
2 62135  43.0027  21.6209 0001023 280.9472  79.1269 15.40700178  7726
STARLINK-32554          
1 62136U 24222Y   25008.72282101  .00001744  00000+0  49022-4 0  9994
2 62136  43.0052  20.6894 0001238 270.4924  89.5791 15.40693360  7750
STARLINK-32570          
1 62137U 24222Z   25008.71834127 -.00001104  00000+0 -19167-4 0  9994
2 62137  43.0029  20.6559 0000466 268.0524  92.0279 15.40708467  7850
STARLINK-32529          
1 62139U 24224A   25008.82048098  .00001628  00000+0  46227-4 0  9990
2 62139  42.9982  46.9312 0000585  87.5782 272.5141 15.40690533  7338
